<?xml version="1.0" encoding="UTF-8" standalone="yes"?>
<gpx version="1.1" creator="OS Maps - Web" xmlns="http://www.topografix.com/GPX/1/1"
xmlns:xsi="http://www.w3.org/2001/XMLSchema-instance"
xsi:schemaLocation="http://www.topografix.com/GPX/1/1 http://www.topografix.com/GPX/1/1/gpx.xsd"
xmlns:gs="http://www.topografix.com/GPX/gpx_style/0/2"
xmlns:gh="https://graphhopper.com/public/schema/gpx/1.1"
xmlns:os="https://ordnancesurvey.co.uk/public/schema/route/0.1">
    <metadata>
        <name>Borders Abbeys Way: Jedburgh to Hawick</name>
        <desc></desc>
        <bounds minlat="55.4281900" minlon="-2.7844000" maxlat="55.4777400" maxlon="-2.5512800"/>
        <extensions>
            <os:version>2.0</os:version>
            <os:point lat="55.4775600" lon="-2.5514600" type="start"/>
            <os:point lat="55.4282200" lon="-2.7844000" type="end"/>
            <os:activity>ON_FOOT_WALKING</os:activity>
            <os:difficulty>UNKNOWN</os:difficulty>
            <os:paths/>
            <os:distance>21664.2646375</os:distance>
            <os:elevation_ascent>499.8100000</os:elevation_ascent>
            <os:route_type>SINGLE</os:route_type>
        </extensions>
    </metadata>
    <wpt lat="55.4775600" lon="-2.5514600"/>
    <wpt lat="55.4763200" lon="-2.5513500"/>
    <wpt lat="55.4758700" lon="-2.5519500"/>
    <wpt lat="55.4756700" lon="-2.5532500"/>
    <wpt lat="55.4757500" lon="-2.5541200"/>
    <wpt lat="55.4771900" lon="-2.5548000"/>
    <wpt lat="55.4775900" lon="-2.5555300"/>
    <wpt lat="55.4750000" lon="-2.5585000"/>
    <wpt lat="55.4702900" lon="-2.5565900"/>
    <wpt lat="55.4686200" lon="-2.5577100"/>
    <wpt lat="55.4646500" lon="-2.5610100"/>
    <wpt lat="55.4645000" lon="-2.5648600"/>
    <wpt lat="55.4666400" lon="-2.5718100"/>
    <wpt lat="55.4675300" lon="-2.5752400"/>
    <wpt lat="55.4643300" lon="-2.5787000"/>
    <wpt lat="55.4578800" lon="-2.5841600"/>
    <wpt lat="55.4524500" lon="-2.5883200"/>
    <wpt lat="55.4529200" lon="-2.5915200"/>
    <wpt lat="55.4543800" lon="-2.5976400"/>
    <wpt lat="55.4554700" lon="-2.6013800"/>
    <wpt lat="55.4547200" lon="-2.6029400"/>
    <wpt lat="55.4539700" lon="-2.6087600"/>
    <wpt lat="55.4531900" lon="-2.6128700"/>
    <wpt lat="55.4529600" lon="-2.6205500"/>
    <wpt lat="55.4514300" lon="-2.6217300"/>
    <wpt lat="55.4500400" lon="-2.6222700"/>
    <wpt lat="55.4525800" lon="-2.6327600"/>
    <wpt lat="55.4521600" lon="-2.6338800"/>
    <wpt lat="55.4520700" lon="-2.6353200"/>
    <wpt lat="55.4515900" lon="-2.6372800"/>
    <wpt lat="55.4520200" lon="-2.6377400"/>
    <wpt lat="55.4502900" lon="-2.6390400"/>
    <wpt lat="55.4503200" lon="-2.6442000"/>
    <wpt lat="55.4490200" lon="-2.6460500"/>
    <wpt lat="55.4492700" lon="-2.6482600"/>
    <wpt lat="55.4492500" lon="-2.6495700"/>
    <wpt lat="55.4478100" lon="-2.6513100"/>
    <wpt lat="55.4481000" lon="-2.6529100"/>
    <wpt lat="55.4487300" lon="-2.6538800"/>
    <wpt lat="55.4501700" lon="-2.6555900"/>
    <wpt lat="55.4514200" lon="-2.6575200"/>
    <wpt lat="55.4518300" lon="-2.6572100"/>
    <wpt lat="55.4541700" lon="-2.6649300"/>
    <wpt lat="55.4536200" lon="-2.6660300"/>
    <wpt lat="55.4550600" lon="-2.6695300"/>
    <wpt lat="55.4554500" lon="-2.6747300"/>
    <wpt lat="55.4550400" lon="-2.6766400"/>
    <wpt lat="55.4580800" lon="-2.6816200"/>
    <wpt lat="55.4580000" lon="-2.6830200"/>
    <wpt lat="55.4587500" lon="-2.6843000"/>
    <wpt lat="55.4594000" lon="-2.6834300"/>
    <wpt lat="55.4609000" lon="-2.6852600"/>
    <wpt lat="55.4594700" lon="-2.6880200"/>
    <wpt lat="55.4580600" lon="-2.6898800"/>
    <wpt lat="55.4573000" lon="-2.6917700"/>
    <wpt lat="55.4575400" lon="-2.6953200"/>
    <wpt lat="55.4583100" lon="-2.7002700"/>
    <wpt lat="55.4582800" lon="-2.7016900"/>
    <wpt lat="55.4553800" lon="-2.7082300"/>
    <wpt lat="55.4537200" lon="-2.7146000"/>
    <wpt lat="55.4557100" lon="-2.7205500"/>
    <wpt lat="55.4557000" lon="-2.7222000"/>
    <wpt lat="55.4552000" lon="-2.7241100"/>
    <wpt lat="55.4481500" lon="-2.7296000"/>
    <wpt lat="55.4458300" lon="-2.7316500"/>
    <wpt lat="55.4440600" lon="-2.7363400"/>
    <wpt lat="55.4428900" lon="-2.7409400"/>
    <wpt lat="55.4425100" lon="-2.7461000"/>
    <wpt lat="55.4417600" lon="-2.7477900"/>
    <wpt lat="55.4388400" lon="-2.7499900"/>
    <wpt lat="55.4378800" lon="-2.7518400"/>
    <wpt lat="55.4356800" lon="-2.7546500"/>
    <wpt lat="55.4343500" lon="-2.7574100"/>
    <wpt lat="55.4321600" lon="-2.7636300"/>
    <wpt lat="55.4316700" lon="-2.7681400"/>
    <wpt lat="55.4289000" lon="-2.7802500"/>
    <wpt lat="55.4282200" lon="-2.7844000"/>
    <trk>
        <name>Borders Abbeys Way: Jedburgh to Hawick</name>
        <trkseg>
            <trkpt lat="55.4775600" lon="-2.5514600"/>
            <trkpt lat="55.4775200" lon="-2.5514200"/>
            <trkpt lat="55.4772300" lon="-2.5513200"/>
            <trkpt lat="55.4767900" lon="-2.5512800"/>
            <trkpt lat="55.4765800" lon="-2.5512900"/>
            <trkpt lat="55.4763200" lon="-2.5513500"/>
            <trkpt lat="55.4761100" lon="-2.5514500"/>
            <trkpt lat="55.4760500" lon="-2.5515200"/>
            <trkpt lat="55.4759100" lon="-2.5518000"/>
            <trkpt lat="55.4758700" lon="-2.5519500"/>
            <trkpt lat="55.4757700" lon="-2.5522400"/>
            <trkpt lat="55.4755800" lon="-2.5530900"/>
            <trkpt lat="55.4756100" lon="-2.5533700"/>
            <trkpt lat="55.4756300" lon="-2.5532900"/>
            <trkpt lat="55.4756700" lon="-2.5532500"/>
            <trkpt lat="55.4757500" lon="-2.5532600"/>
            <trkpt lat="55.4758200" lon="-2.5534000"/>
            <trkpt lat="55.4757700" lon="-2.5534800"/>
            <trkpt lat="55.4759100" lon="-2.5536400"/>
            <trkpt lat="55.4759100" lon="-2.5538500"/>
            <trkpt lat="55.4759900" lon="-2.5541000"/>
            <trkpt lat="55.4757500" lon="-2.5541200"/>
            <trkpt lat="55.4765900" lon="-2.5540900"/>
            <trkpt lat="55.4766900" lon="-2.5541200"/>
            <trkpt lat="55.4768200" lon="-2.5542100"/>
            <trkpt lat="55.4770900" lon="-2.5546000"/>
            <trkpt lat="55.4771900" lon="-2.5548000"/>
            <trkpt lat="55.4772900" lon="-2.5550100"/>
            <trkpt lat="55.4773200" lon="-2.5548900"/>
            <trkpt lat="55.4773500" lon="-2.5550300"/>
            <trkpt lat="55.4774800" lon="-2.5553000"/>
            <trkpt lat="55.4774600" lon="-2.5553100"/>
            <trkpt lat="55.4775100" lon="-2.5553600"/>
            <trkpt lat="55.4775900" lon="-2.5555300"/>
            <trkpt lat="55.4776400" lon="-2.5555400"/>
            <trkpt lat="55.4776700" lon="-2.5554700"/>
            <trkpt lat="55.4776600" lon="-2.5553100"/>
            <trkpt lat="55.4776200" lon="-2.5552000"/>
            <trkpt lat="55.4776800" lon="-2.5551500"/>
            <trkpt lat="55.4777400" lon="-2.5554200"/>
            <trkpt lat="55.4775900" lon="-2.5556400"/>
            <trkpt lat="55.4751300" lon="-2.5583200"/>
            <trkpt lat="55.4750000" lon="-2.5585000"/>
            <trkpt lat="55.4748700" lon="-2.5587000"/>
            <trkpt lat="55.4748000" lon="-2.5584000"/>
            <trkpt lat="55.4747000" lon="-2.5582900"/>
            <trkpt lat="55.4743600" lon="-2.5583000"/>
            <trkpt lat="55.4741400" lon="-2.5582300"/>
            <trkpt lat="55.4717600" lon="-2.5568100"/>
            <trkpt lat="55.4708800" lon="-2.5564400"/>
            <trkpt lat="55.4707500" lon="-2.5564300"/>
            <trkpt lat="55.4706100" lon="-2.5564500"/>
            <trkpt lat="55.4702900" lon="-2.5565900"/>
            <trkpt lat="55.4699300" lon="-2.5567300"/>
            <trkpt lat="55.4695500" lon="-2.5568000"/>
            <trkpt lat="55.4692300" lon="-2.5569400"/>
            <trkpt lat="55.4686200" lon="-2.5577100"/>
            <trkpt lat="55.4682800" lon="-2.5581300"/>
            <trkpt lat="55.4679400" lon="-2.5581700"/>
            <trkpt lat="55.4678200" lon="-2.5582300"/>
            <trkpt lat="55.4665300" lon="-2.5595800"/>
            <trkpt lat="55.4664800" lon="-2.5597500"/>
            <trkpt lat="55.4664500" lon="-2.5598000"/>
            <trkpt lat="55.4659500" lon="-2.5602400"/>
            <trkpt lat="55.4658600" lon="-2.5602500"/>
            <trkpt lat="55.4655500" lon="-2.5601100"/>
            <trkpt lat="55.4654500" lon="-2.5601500"/>
            <trkpt lat="55.4646500" lon="-2.5610100"/>
            <trkpt lat="55.4644900" lon="-2.5611700"/>
            <trkpt lat="55.4640800" lon="-2.5613600"/>
            <trkpt lat="55.4639800" lon="-2.5613000"/>
            <trkpt lat="55.4645000" lon="-2.5648600"/>
            <trkpt lat="55.4650000" lon="-2.5683400"/>
            <trkpt lat="55.4654600" lon="-2.5695900"/>
            <trkpt lat="55.4654400" lon="-2.5700300"/>
            <trkpt lat="55.4655000" lon="-2.5701600"/>
            <trkpt lat="55.4656800" lon="-2.5701400"/>
            <trkpt lat="55.4658800" lon="-2.5702000"/>
            <trkpt lat="55.4662200" lon="-2.5705200"/>
            <trkpt lat="55.4666400" lon="-2.5718100"/>
            <trkpt lat="55.4668200" lon="-2.5723500"/>
            <trkpt lat="55.4675300" lon="-2.5752400"/>
            <trkpt lat="55.4675800" lon="-2.5754800"/>
            <trkpt lat="55.4676100" lon="-2.5755400"/>
            <trkpt lat="55.4676400" lon="-2.5755500"/>
            <trkpt lat="55.4675700" lon="-2.5757400"/>
            <trkpt lat="55.4647400" lon="-2.5783000"/>
            <trkpt lat="55.4643300" lon="-2.5787000"/>
            <trkpt lat="55.4637800" lon="-2.5792600"/>
            <trkpt lat="55.4636700" lon="-2.5793300"/>
            <trkpt lat="55.4624100" lon="-2.5804100"/>
            <trkpt lat="55.4609200" lon="-2.5817400"/>
            <trkpt lat="55.4608300" lon="-2.5818800"/>
            <trkpt lat="55.4602900" lon="-2.5823900"/>
            <trkpt lat="55.4578800" lon="-2.5841600"/>
            <trkpt lat="55.4555700" lon="-2.5858300"/>
            <trkpt lat="55.4555000" lon="-2.5858600"/>
            <trkpt lat="55.4554700" lon="-2.5859000"/>
            <trkpt lat="55.4539500" lon="-2.5870100"/>
            <trkpt lat="55.4533300" lon="-2.5875100"/>
            <trkpt lat="55.4524700" lon="-2.5881300"/>
            <trkpt lat="55.4524500" lon="-2.5883200"/>
            <trkpt lat="55.4524200" lon="-2.5885400"/>
            <trkpt lat="55.4523400" lon="-2.5887300"/>
            <trkpt lat="55.4526100" lon="-2.5902200"/>
            <trkpt lat="55.4529200" lon="-2.5915200"/>
            <trkpt lat="55.4530000" lon="-2.5918500"/>
            <trkpt lat="55.4533800" lon="-2.5932200"/>
            <trkpt lat="55.4538800" lon="-2.5948000"/>
            <trkpt lat="55.4538900" lon="-2.5949300"/>
            <trkpt lat="55.4543800" lon="-2.5976400"/>
            <trkpt lat="55.4544200" lon="-2.5978600"/>
            <trkpt lat="55.4549200" lon="-2.5998000"/>
            <trkpt lat="55.4554700" lon="-2.6013800"/>
            <trkpt lat="55.4554800" lon="-2.6014100"/>
            <trkpt lat="55.4549500" lon="-2.6021800"/>
            <trkpt lat="55.4546800" lon="-2.6026500"/>
            <trkpt lat="55.4547200" lon="-2.6029400"/>
            <trkpt lat="55.4547400" lon="-2.6031000"/>
            <trkpt lat="55.4546900" lon="-2.6032200"/>
            <trkpt lat="55.4540000" lon="-2.6086700"/>
            <trkpt lat="55.4539700" lon="-2.6087600"/>
            <trkpt lat="55.4536200" lon="-2.6099600"/>
            <trkpt lat="55.4531400" lon="-2.6110300"/>
            <trkpt lat="55.4531000" lon="-2.6119600"/>
            <trkpt lat="55.4531900" lon="-2.6126200"/>
            <trkpt lat="55.4531900" lon="-2.6128700"/>
            <trkpt lat="55.4532000" lon="-2.6130700"/>
            <trkpt lat="55.4532500" lon="-2.6133800"/>
            <trkpt lat="55.4533700" lon="-2.6135800"/>
            <trkpt lat="55.4533800" lon="-2.6137200"/>
            <trkpt lat="55.4531600" lon="-2.6145700"/>
            <trkpt lat="55.4530400" lon="-2.6148500"/>
            <trkpt lat="55.4529400" lon="-2.6154400"/>
            <trkpt lat="55.4530300" lon="-2.6176700"/>
            <trkpt lat="55.4530300" lon="-2.6181700"/>
            <trkpt lat="55.4531200" lon="-2.6185500"/>
            <trkpt lat="55.4532800" lon="-2.6190500"/>
            <trkpt lat="55.4532800" lon="-2.6195400"/>
            <trkpt lat="55.4531900" lon="-2.6198300"/>
            <trkpt lat="55.4530700" lon="-2.6200000"/>
            <trkpt lat="55.4530100" lon="-2.6201700"/>
            <trkpt lat="55.4529700" lon="-2.6203700"/>
            <trkpt lat="55.4529600" lon="-2.6205500"/>
            <trkpt lat="55.4527700" lon="-2.6206700"/>
            <trkpt lat="55.4526900" lon="-2.6208000"/>
            <trkpt lat="55.4526300" lon="-2.6210500"/>
            <trkpt lat="55.4526200" lon="-2.6211600"/>
            <trkpt lat="55.4522400" lon="-2.6213500"/>
            <trkpt lat="55.4518200" lon="-2.6215000"/>
            <trkpt lat="55.4514300" lon="-2.6217300"/>
            <trkpt lat="55.4512400" lon="-2.6218200"/>
            <trkpt lat="55.4510200" lon="-2.6219600"/>
            <trkpt lat="55.4508700" lon="-2.6219900"/>
            <trkpt lat="55.4506100" lon="-2.6219400"/>
            <trkpt lat="55.4500900" lon="-2.6222200"/>
            <trkpt lat="55.4500400" lon="-2.6222700"/>
            <trkpt lat="55.4500200" lon="-2.6223800"/>
            <trkpt lat="55.4500300" lon="-2.6225000"/>
            <trkpt lat="55.4501400" lon="-2.6229300"/>
            <trkpt lat="55.4502000" lon="-2.6230300"/>
            <trkpt lat="55.4513600" lon="-2.6277200"/>
            <trkpt lat="55.4525800" lon="-2.6327600"/>
            <trkpt lat="55.4526800" lon="-2.6331800"/>
            <trkpt lat="55.4523900" lon="-2.6333200"/>
            <trkpt lat="55.4520600" lon="-2.6333800"/>
            <trkpt lat="55.4520800" lon="-2.6335500"/>
            <trkpt lat="55.4521600" lon="-2.6338800"/>
            <trkpt lat="55.4522400" lon="-2.6343100"/>
            <trkpt lat="55.4522400" lon="-2.6344600"/>
            <trkpt lat="55.4522100" lon="-2.6347500"/>
            <trkpt lat="55.4521400" lon="-2.6351300"/>
            <trkpt lat="55.4520700" lon="-2.6353200"/>
            <trkpt lat="55.4517900" lon="-2.6361700"/>
            <trkpt lat="55.4517600" lon="-2.6363000"/>
            <trkpt lat="55.4517300" lon="-2.6369100"/>
            <trkpt lat="55.4516100" lon="-2.6371900"/>
            <trkpt lat="55.4515900" lon="-2.6372800"/>
            <trkpt lat="55.4515900" lon="-2.6373700"/>
            <trkpt lat="55.4516300" lon="-2.6374500"/>
            <trkpt lat="55.4518700" lon="-2.6376000"/>
            <trkpt lat="55.4520200" lon="-2.6377400"/>
            <trkpt lat="55.4518500" lon="-2.6375800"/>
            <trkpt lat="55.4517900" lon="-2.6376700"/>
            <trkpt lat="55.4516700" lon="-2.6377400"/>
            <trkpt lat="55.4509900" lon="-2.6378800"/>
            <trkpt lat="55.4508600" lon="-2.6379900"/>
            <trkpt lat="55.4505300" lon="-2.6384800"/>
            <trkpt lat="55.4503500" lon="-2.6386800"/>
            <trkpt lat="55.4502800" lon="-2.6388700"/>
            <trkpt lat="55.4502900" lon="-2.6390400"/>
            <trkpt lat="55.4503200" lon="-2.6442000"/>
            <trkpt lat="55.4503200" lon="-2.6446600"/>
            <trkpt lat="55.4491900" lon="-2.6456600"/>
            <trkpt lat="55.4490200" lon="-2.6460500"/>
            <trkpt lat="55.4489500" lon="-2.6463000"/>
            <trkpt lat="55.4489400" lon="-2.6467500"/>
            <trkpt lat="55.4489800" lon="-2.6470300"/>
            <trkpt lat="55.4492800" lon="-2.6475400"/>
            <trkpt lat="55.4492700" lon="-2.6482600"/>
            <trkpt lat="55.4492500" lon="-2.6495700"/>
            <trkpt lat="55.4492500" lon="-2.6496300"/>
            <trkpt lat="55.4478100" lon="-2.6513100"/>
            <trkpt lat="55.4481000" lon="-2.6529100"/>
            <trkpt lat="55.4487300" lon="-2.6538800"/>
            <trkpt lat="55.4501700" lon="-2.6555900"/>
            <trkpt lat="55.4502000" lon="-2.6557100"/>
            <trkpt lat="55.4503500" lon="-2.6559600"/>
            <trkpt lat="55.4504000" lon="-2.6561700"/>
            <trkpt lat="55.4504600" lon="-2.6563400"/>
            <trkpt lat="55.4505500" lon="-2.6564000"/>
            <trkpt lat="55.4509100" lon="-2.6563900"/>
            <trkpt lat="55.4509800" lon="-2.6564200"/>
            <trkpt lat="55.4510500" lon="-2.6565300"/>
            <trkpt lat="55.4512800" lon="-2.6573100"/>
            <trkpt lat="55.4513400" lon="-2.6574600"/>
            <trkpt lat="55.4514200" lon="-2.6575200"/>
            <trkpt lat="55.4515200" lon="-2.6575000"/>
            <trkpt lat="55.4517900" lon="-2.6570700"/>
            <trkpt lat="55.4518300" lon="-2.6572100"/>
            <trkpt lat="55.4519700" lon="-2.6575700"/>
            <trkpt lat="55.4519900" lon="-2.6577900"/>
            <trkpt lat="55.4519900" lon="-2.6579900"/>
            <trkpt lat="55.4520100" lon="-2.6581200"/>
            <trkpt lat="55.4523200" lon="-2.6585100"/>
            <trkpt lat="55.4523700" lon="-2.6586900"/>
            <trkpt lat="55.4524200" lon="-2.6593600"/>
            <trkpt lat="55.4541500" lon="-2.6649500"/>
            <trkpt lat="55.4541700" lon="-2.6649300"/>
            <trkpt lat="55.4535700" lon="-2.6658700"/>
            <trkpt lat="55.4536200" lon="-2.6660300"/>
            <trkpt lat="55.4538600" lon="-2.6669100"/>
            <trkpt lat="55.4549300" lon="-2.6691300"/>
            <trkpt lat="55.4550400" lon="-2.6694500"/>
            <trkpt lat="55.4550600" lon="-2.6695300"/>
            <trkpt lat="55.4551500" lon="-2.6699800"/>
            <trkpt lat="55.4553000" lon="-2.6713200"/>
            <trkpt lat="55.4554100" lon="-2.6725800"/>
            <trkpt lat="55.4554500" lon="-2.6747300"/>
            <trkpt lat="55.4554200" lon="-2.6751800"/>
            <trkpt lat="55.4553300" lon="-2.6756600"/>
            <trkpt lat="55.4550400" lon="-2.6766400"/>
            <trkpt lat="55.4550000" lon="-2.6767800"/>
            <trkpt lat="55.4552900" lon="-2.6773000"/>
            <trkpt lat="55.4556600" lon="-2.6779000"/>
            <trkpt lat="55.4558600" lon="-2.6782700"/>
            <trkpt lat="55.4568900" lon="-2.6798700"/>
            <trkpt lat="55.4569000" lon="-2.6799100"/>
            <trkpt lat="55.4570100" lon="-2.6801100"/>
            <trkpt lat="55.4575100" lon="-2.6808500"/>
            <trkpt lat="55.4580800" lon="-2.6816200"/>
            <trkpt lat="55.4581000" lon="-2.6816500"/>
            <trkpt lat="55.4580500" lon="-2.6819900"/>
            <trkpt lat="55.4580500" lon="-2.6822800"/>
            <trkpt lat="55.4580700" lon="-2.6827100"/>
            <trkpt lat="55.4580600" lon="-2.6827800"/>
            <trkpt lat="55.4579900" lon="-2.6829900"/>
            <trkpt lat="55.4580000" lon="-2.6830200"/>
            <trkpt lat="55.4586000" lon="-2.6840200"/>
            <trkpt lat="55.4587300" lon="-2.6841600"/>
            <trkpt lat="55.4586700" lon="-2.6843600"/>
            <trkpt lat="55.4586800" lon="-2.6843800"/>
            <trkpt lat="55.4587500" lon="-2.6843000"/>
            <trkpt lat="55.4593500" lon="-2.6834600"/>
            <trkpt lat="55.4594000" lon="-2.6834300"/>
            <trkpt lat="55.4593800" lon="-2.6834500"/>
            <trkpt lat="55.4594600" lon="-2.6834800"/>
            <trkpt lat="55.4598400" lon="-2.6842000"/>
            <trkpt lat="55.4599200" lon="-2.6843000"/>
            <trkpt lat="55.4603700" lon="-2.6846400"/>
            <trkpt lat="55.4609000" lon="-2.6852600"/>
            <trkpt lat="55.4604900" lon="-2.6859700"/>
            <trkpt lat="55.4598900" lon="-2.6872600"/>
            <trkpt lat="55.4594700" lon="-2.6880200"/>
            <trkpt lat="55.4587300" lon="-2.6889400"/>
            <trkpt lat="55.4580600" lon="-2.6898800"/>
            <trkpt lat="55.4575800" lon="-2.6912600"/>
            <trkpt lat="55.4573000" lon="-2.6917700"/>
            <trkpt lat="55.4575400" lon="-2.6953200"/>
            <trkpt lat="55.4577100" lon="-2.6962500"/>
            <trkpt lat="55.4579200" lon="-2.6975600"/>
            <trkpt lat="55.4583100" lon="-2.7002700"/>
            <trkpt lat="55.4582800" lon="-2.7016900"/>
            <trkpt lat="55.4580300" lon="-2.7022800"/>
            <trkpt lat="55.4555100" lon="-2.7078100"/>
            <trkpt lat="55.4553800" lon="-2.7082300"/>
            <trkpt lat="55.4553600" lon="-2.7083200"/>
            <trkpt lat="55.4551300" lon="-2.7100400"/>
            <trkpt lat="55.4549300" lon="-2.7113300"/>
            <trkpt lat="55.4547800" lon="-2.7119600"/>
            <trkpt lat="55.4546200" lon="-2.7123800"/>
            <trkpt lat="55.4536700" lon="-2.7143700"/>
            <trkpt lat="55.4536900" lon="-2.7145200"/>
            <trkpt lat="55.4537200" lon="-2.7146000"/>
            <trkpt lat="55.4546500" lon="-2.7170200"/>
            <trkpt lat="55.4553000" lon="-2.7190800"/>
            <trkpt lat="55.4555200" lon="-2.7199600"/>
            <trkpt lat="55.4557100" lon="-2.7205500"/>
            <trkpt lat="55.4558200" lon="-2.7208300"/>
            <trkpt lat="55.4557800" lon="-2.7210700"/>
            <trkpt lat="55.4557900" lon="-2.7213700"/>
            <trkpt lat="55.4557800" lon="-2.7216800"/>
            <trkpt lat="55.4557000" lon="-2.7222000"/>
            <trkpt lat="55.4556000" lon="-2.7230100"/>
            <trkpt lat="55.4553200" lon="-2.7239200"/>
            <trkpt lat="55.4552000" lon="-2.7241100"/>
            <trkpt lat="55.4549700" lon="-2.7244900"/>
            <trkpt lat="55.4546800" lon="-2.7249200"/>
            <trkpt lat="55.4543400" lon="-2.7249600"/>
            <trkpt lat="55.4531000" lon="-2.7256800"/>
            <trkpt lat="55.4521400" lon="-2.7266800"/>
            <trkpt lat="55.4515100" lon="-2.7272100"/>
            <trkpt lat="55.4506500" lon="-2.7276700"/>
            <trkpt lat="55.4498900" lon="-2.7279300"/>
            <trkpt lat="55.4495300" lon="-2.7281100"/>
            <trkpt lat="55.4490600" lon="-2.7285200"/>
            <trkpt lat="55.4481500" lon="-2.7296000"/>
            <trkpt lat="55.4478400" lon="-2.7299300"/>
            <trkpt lat="55.4471500" lon="-2.7304900"/>
            <trkpt lat="55.4466400" lon="-2.7308600"/>
            <trkpt lat="55.4463700" lon="-2.7312000"/>
            <trkpt lat="55.4463000" lon="-2.7311700"/>
            <trkpt lat="55.4461000" lon="-2.7314300"/>
            <trkpt lat="55.4458300" lon="-2.7316500"/>
            <trkpt lat="55.4456000" lon="-2.7319100"/>
            <trkpt lat="55.4448500" lon="-2.7330400"/>
            <trkpt lat="55.4447500" lon="-2.7332900"/>
            <trkpt lat="55.4446600" lon="-2.7336200"/>
            <trkpt lat="55.4443900" lon="-2.7342500"/>
            <trkpt lat="55.4440200" lon="-2.7353800"/>
            <trkpt lat="55.4439500" lon="-2.7359500"/>
            <trkpt lat="55.4440500" lon="-2.7362000"/>
            <trkpt lat="55.4440600" lon="-2.7363400"/>
            <trkpt lat="55.4441300" lon="-2.7371400"/>
            <trkpt lat="55.4436200" lon="-2.7384600"/>
            <trkpt lat="55.4433600" lon="-2.7393700"/>
            <trkpt lat="55.4429600" lon="-2.7397900"/>
            <trkpt lat="55.4429800" lon="-2.7398800"/>
            <trkpt lat="55.4429800" lon="-2.7399700"/>
            <trkpt lat="55.4428900" lon="-2.7409400"/>
            <trkpt lat="55.4426600" lon="-2.7417600"/>
            <trkpt lat="55.4426000" lon="-2.7422400"/>
            <trkpt lat="55.4425800" lon="-2.7425400"/>
            <trkpt lat="55.4424800" lon="-2.7429200"/>
            <trkpt lat="55.4420000" lon="-2.7443300"/>
            <trkpt lat="55.4419900" lon="-2.7444700"/>
            <trkpt lat="55.4420000" lon="-2.7445200"/>
            <trkpt lat="55.4424300" lon="-2.7456700"/>
            <trkpt lat="55.4425100" lon="-2.7461000"/>
            <trkpt lat="55.4425300" lon="-2.7463500"/>
            <trkpt lat="55.4424800" lon="-2.7468600"/>
            <trkpt lat="55.4423400" lon="-2.7472500"/>
            <trkpt lat="55.4418800" lon="-2.7476600"/>
            <trkpt lat="55.4417600" lon="-2.7477900"/>
            <trkpt lat="55.4416800" lon="-2.7478800"/>
            <trkpt lat="55.4413700" lon="-2.7481300"/>
            <trkpt lat="55.4408400" lon="-2.7484200"/>
            <trkpt lat="55.4407600" lon="-2.7485100"/>
            <trkpt lat="55.4402400" lon="-2.7488300"/>
            <trkpt lat="55.4395000" lon="-2.7494100"/>
            <trkpt lat="55.4388400" lon="-2.7499900"/>
            <trkpt lat="55.4383700" lon="-2.7505700"/>
            <trkpt lat="55.4381600" lon="-2.7511600"/>
            <trkpt lat="55.4378800" lon="-2.7518400"/>
            <trkpt lat="55.4378400" lon="-2.7519300"/>
            <trkpt lat="55.4376100" lon="-2.7520200"/>
            <trkpt lat="55.4371100" lon="-2.7527600"/>
            <trkpt lat="55.4367700" lon="-2.7534100"/>
            <trkpt lat="55.4364000" lon="-2.7539100"/>
            <trkpt lat="55.4363500" lon="-2.7539300"/>
            <trkpt lat="55.4362600" lon="-2.7540300"/>
            <trkpt lat="55.4360300" lon="-2.7541400"/>
            <trkpt lat="55.4357800" lon="-2.7545400"/>
            <trkpt lat="55.4356800" lon="-2.7546500"/>
            <trkpt lat="55.4352900" lon="-2.7552600"/>
            <trkpt lat="55.4352300" lon="-2.7555100"/>
            <trkpt lat="55.4349400" lon="-2.7561000"/>
            <trkpt lat="55.4343500" lon="-2.7574100"/>
            <trkpt lat="55.4340800" lon="-2.7580100"/>
            <trkpt lat="55.4339200" lon="-2.7584700"/>
            <trkpt lat="55.4337100" lon="-2.7589800"/>
            <trkpt lat="55.4331700" lon="-2.7606200"/>
            <trkpt lat="55.4326200" lon="-2.7620900"/>
            <trkpt lat="55.4321600" lon="-2.7636300"/>
            <trkpt lat="55.4317900" lon="-2.7648900"/>
            <trkpt lat="55.4317200" lon="-2.7652700"/>
            <trkpt lat="55.4315200" lon="-2.7667500"/>
            <trkpt lat="55.4315000" lon="-2.7670400"/>
            <trkpt lat="55.4315500" lon="-2.7675500"/>
            <trkpt lat="55.4316700" lon="-2.7681400"/>
            <trkpt lat="55.4317500" lon="-2.7685300"/>
            <trkpt lat="55.4318000" lon="-2.7686500"/>
            <trkpt lat="55.4316400" lon="-2.7686800"/>
            <trkpt lat="55.4316200" lon="-2.7690600"/>
            <trkpt lat="55.4315600" lon="-2.7695000"/>
            <trkpt lat="55.4308400" lon="-2.7719300"/>
            <trkpt lat="55.4305700" lon="-2.7729600"/>
            <trkpt lat="55.4304200" lon="-2.7734400"/>
            <trkpt lat="55.4300300" lon="-2.7740700"/>
            <trkpt lat="55.4298500" lon="-2.7745000"/>
            <trkpt lat="55.4297400" lon="-2.7748900"/>
            <trkpt lat="55.4296800" lon="-2.7751600"/>
            <trkpt lat="55.4297500" lon="-2.7751900"/>
            <trkpt lat="55.4294700" lon="-2.7769900"/>
            <trkpt lat="55.4295000" lon="-2.7770200"/>
            <trkpt lat="55.4294800" lon="-2.7771700"/>
            <trkpt lat="55.4294400" lon="-2.7771600"/>
            <trkpt lat="55.4294200" lon="-2.7772000"/>
            <trkpt lat="55.4290700" lon="-2.7794800"/>
            <trkpt lat="55.4290400" lon="-2.7794400"/>
            <trkpt lat="55.4289000" lon="-2.7802500"/>
            <trkpt lat="55.4288400" lon="-2.7806100"/>
            <trkpt lat="55.4289100" lon="-2.7806400"/>
            <trkpt lat="55.4289000" lon="-2.7807200"/>
            <trkpt lat="55.4288800" lon="-2.7807100"/>
            <trkpt lat="55.4286900" lon="-2.7819400"/>
            <trkpt lat="55.4286300" lon="-2.7819100"/>
            <trkpt lat="55.4284300" lon="-2.7833000"/>
            <trkpt lat="55.4284200" lon="-2.7834300"/>
            <trkpt lat="55.4284400" lon="-2.7836000"/>
            <trkpt lat="55.4284300" lon="-2.7836100"/>
            <trkpt lat="55.4283400" lon="-2.7841300"/>
            <trkpt lat="55.4283200" lon="-2.7841800"/>
            <trkpt lat="55.4282300" lon="-2.7842100"/>
            <trkpt lat="55.4281900" lon="-2.7843000"/>
            <trkpt lat="55.4282200" lon="-2.7844000"/>
        </trkseg>
    </trk>
</gpx>
